STARLINK-3304           
1 50161U 21125F   26068.77172854  .00001172  00000+0  91740-4 0  9992
2 50161  53.2164 258.7523 0001066  95.9728 264.1386 15.08833438236465
LEMUR-2-ESPERANZA       
1 63352U 25061B   26068.87489603  .00006090  00000+0  34973-3 0  9993
2 63352  97.5568  45.1407 0016949 244.8770 115.0702 15.12770807 52576
